STARLINK-30534          
1 57992U 23153B   26068.97809251  .00158702  00000+0  56973-2 0  9993
2 57992  42.9996  65.1547 0000273 225.5896 134.4933 15.27326890134840
OTTER                   
1 62623U 25009Q   26068.72300813  .00012198  00000+0  45151-3 0  9990
2 62623  97.4065 151.3812 0003572 310.7710  49.3219 15.27809545 63721
